OBJECT_NAME,OBJECT_ID,EPOCH,MEAN_MOTION,ECCENTRICITY,INCLINATION,RA_OF_ASC_NODE,ARG_OF_PERICENTER,MEAN_ANOMALY,EPHEMERIS_TYPE,CLASSIFICATION_TYPE,NORAD_CAT_ID,ELEMENT_SET_NO,REV_AT_EPOCH,BSTAR,MEAN_MOTION_DOT,MEAN_MOTION_DDOT
STARLINK-34809,2025-165P,2026-06-13T14:52:40.432224,15.05654395,.00019655,97.3650,240.8945,142.6209,217.5156,0,U,65069,999,4922,.32946446E-3,.47E-4,0
STARLINK-34794,2025-165Q,2026-06-13T15:12:35.588736,15.05676451,.00014823,97.3674,240.8737,142.2464,217.8868,0,U,65070,999,4922,.86606119E-3,.12469E-3,0
STARLINK-34805,2025-165R,2026-06-13T13:28:55.930080,15.05662394,.00017324,97.3650,240.8217,116.1006,244.0400,0,U,65071,999,4921,.42539145E-3,.6088E-4,0
STARLINK-34735,2025-165S,2026-06-13T04:50:35.329920,15.05625979,.0001586,97.3662,240.5383,121.1460,238.9923,0,U,65072,999,4916,-.13270635E-3,-.197E-4,0
STARLINK-34781,2025-165T,2026-06-13T15:24:34.776288,15.05657982,.00014464,97.3637,241.0193,176.7814,183.3423,0,U,65073,999,4923,.51388171E-3,.7366E-4,0
STARLINK-34780,2025-165U,2026-06-13T11:45:15.531840,15.05653382,.0001454,97.3627,240.7647,146.9076,213.2243,0,U,65074,999,4920,.18744035E-3,.2648E-4,0
STARLINK-34771,2025-167A,2026-06-13T14:54:23.452128,15.30205240,.00011323,53.1600,298.5449,131.7605,228.3493,0,U,65078,999,4820,.97845225E-3,.28737E-3,0
STARLINK-34634,2025-167B,2026-06-13T14:24:05.948640,15.34402149,.00011796,53.1586,297.7064,107.9936,252.1195,0,U,65079,999,4821,.84623487E-3,.28325E-3,0
STARLINK-34267,2025-167C,2026-06-13T14:27:07.540704,15.34397416,.00012482,53.1599,297.7170,106.4302,253.6838,0,U,65080,999,4943,.61744729E-3,.20541E-3,0
STARLINK-34561,2025-167D,2026-06-13T14:43:45.347520,15.30201536,.00012325,53.1605,298.4965,102.1507,257.9632,0,U,65081,999,4945,.70122774E-3,.20467E-3,0
STARLINK-34626,2025-167E,2026-06-13T14:00:01.999872,15.41696423,.00010667,53.1596,296.4828,55.4857,163.4999,0,U,65082,999,585,-.41440401E-1,-.1594196E-1,0
STARLINK-34247,2025-167F,2026-06-13T13:29:27.187872,15.30226368,.00014274,53.1611,298.8854,64.4879,295.6269,0,U,65083,999,4819,.11793055E-2,.34761E-3,0
STARLINK-34601,2025-167G,2026-06-13T15:02:59.695584,15.49340180,.00009815,53.1601,296.3930,61.8235,298.2873,0,U,65084,999,4822,.86612605E-3,.48072E-3,0
STARLINK-34822,2025-167J,2026-06-13T15:07:27.571872,15.30205138,.00024038,53.1609,301.3915,156.5546,203.5565,0,U,65086,999,4816,.89771465E-3,.26328E-3,0
STARLINK-34686,2025-167K,2026-06-13T15:02:54.242016,15.30214031,.00012754,53.1604,301.3731,121.7279,238.3846,0,U,65087,999,4816,.96605804E-3,.28374E-3,0
STARLINK-34594,2025-167L,2026-06-13T14:58:20.164800,15.30205407,.0002958,53.1596,301.3536,170.9482,189.1573,0,U,65088,999,4816,.96152162E-3,.28233E-3,0
STARLINK-34665,2025-167M,2026-06-13T14:53:46.957632,15.30209193,.00011394,53.1584,301.3297,127.5863,232.5241,0,U,65089,999,4816,.99056783E-3,.29102E-3,0
STARLINK-34673,2025-167N,2026-06-13T14:49:13.263168,15.30202380,.00012941,53.1590,301.3106,267.4065,92.6788,0,U,65090,999,4816,.97269855E-3,.28562E-3,0
STARLINK-34648,2025-167P,2026-06-13T14:00:01.999872,15.49289630,.00012012,53.1598,297.2176,69.1613,95.6584,0,U,65091,999,590,.27652989E-3,.1495E-3,0
STARLINK-34640,2025-167Q,2026-06-13T14:43:09.019776,15.30208110,.00010277,53.1593,301.2803,106.7012,253.4101,0,U,65092,999,4816,.99979524E-3,.29376E-3,0
STARLINK-34266,2025-167R,2026-06-13T14:00:01.999872,15.49329090,.00015703,53.1603,297.3430,67.0933,34.3132,0,U,65093,999,595,.32974802E-3,.17946E-3,0
STARLINK-34769,2025-167S,2026-06-13T14:00:01.999872,15.49291652,.00012081,53.1598,297.2033,78.9743,92.4921,0,U,65094,999,595,.32373424E-3,.17586E-3,0
STARLINK-34768,2025-167T,2026-06-13T15:29:20.205600,15.49322255,.0000998,53.1602,296.5042,102.5851,257.5270,0,U,65095,999,4823,.91254578E-3,.50657E-3,0
STARLINK-34759,2025-167U,2026-06-13T15:26:32.312256,15.49317502,.00009485,53.1601,296.4904,92.5344,267.5773,0,U,65096,999,4823,.11308821E-2,.62974E-3,0
STARLINK-34741,2025-167V,2026-06-13T15:03:46.908000,15.49340265,.00009697,53.1601,296.3933,47.4993,312.6098,0,U,65097,999,4823,.87749121E-3,.48713E-3,0
STARLINK-34764,2025-167W,2026-06-13T14:24:53.662176,15.34406238,.00008904,53.1592,299.7862,66.0387,294.0709,0,U,65098,999,4818,.96185034E-3,.32268E-3,0
STARLINK-34815,2025-167X,2026-06-13T15:49:36.139584,15.34398661,.00010507,53.1595,299.4418,85.8610,274.2512,0,U,65099,999,4819,.73540669E-3,.24551E-3,0
STARLINK-34814,2025-167Y,2026-06-13T14:43:03.910080,15.34416948,.00019716,53.1593,299.8633,160.8391,199.2686,0,U,65100,999,4818,.1315737E-2,.44366E-3,0
STARLINK-34285,2025-167Z,2026-06-13T15:13:20.921088,15.34457382,.0001329,53.1610,299.9949,100.4963,259.6190,0,U,65101,999,4818,.13529003E-2,.45696E-3,0
STARLINK-34857,2025-167AA,2026-06-13T14:00:01.999872,15.34384254,.00012039,53.1602,296.4754,69.2877,108.1053,0,U,65102,999,596,.26897437E-4,.532E-5,0
