STARLINK-34809          
1 65069U 25165P   26164.61991241  .00004700  00000+0  32946-3 0  9994
2 65069  97.3650 240.8945 0001965 142.6209 217.5156 15.05654395 49222
STARLINK-34794          
1 65070U 25165Q   26164.63374524  .00012469  00000+0  86606-3 0  9990
2 65070  97.3674 240.8737 0001482 142.2464 217.8868 15.05676451 49222
STARLINK-34805          
1 65071U 25165R   26164.56175845  .00006088  00000+0  42539-3 0  9995
2 65071  97.3650 240.8217 0001732 116.1006 244.0400 15.05662394 49214
STARLINK-34735          
1 65072U 25165S   26164.20179780 -.00001970  00000+0 -13271-3 0  9997
2 65072  97.3662 240.5383 0001586 121.1460 238.9923 15.05625979 49160
STARLINK-34781          
1 65073U 25165T   26164.64206917  .00007366  00000+0  51388-3 0  9993
2 65073  97.3637 241.0193 0001446 176.7814 183.3423 15.05657982 49237
STARLINK-34780          
1 65074U 25165U   26164.48976310  .00002648  00000+0  18744-3 0  9994
2 65074  97.3627 240.7647 0001454 146.9076 213.2243 15.05653382 49205
STARLINK-34771          
1 65078U 25167A   26164.62110477  .00028737  00000+0  97845-3 0  9996
2 65078  53.1600 298.5449 0001132 131.7605 228.3493 15.30205240 48201
STARLINK-34634          
1 65079U 25167B   26164.60006885  .00028325  00000+0  84623-3 0  9995
2 65079  53.1586 297.7064 0001179 107.9936 252.1195 15.34402149 48218
STARLINK-34267          
1 65080U 25167C   26164.60217061  .00020541  00000+0  61745-3 0  9999
2 65080  53.1599 297.7170 0001248 106.4302 253.6838 15.34397416 49435
STARLINK-34561          
1 65081U 25167D   26164.61371930  .00020467  00000+0  70123-3 0  9994
2 65081  53.1605 298.4965 0001232 102.1507 257.9632 15.30201536 49451
STARLINK-34626          
1 65082U 25167E   26164.58335648 -.01594196  00000+0 -41440-1 0  9993
2 65082  53.1596 296.4828 0001066  55.4857 163.4999 15.41696423  5858
STARLINK-34247          
1 65083U 25167F   26164.56212023  .00034761  00000+0  11793-2 0  9996
2 65083  53.1611 298.8854 0001427  64.4879 295.6269 15.30226368 48194
STARLINK-34601          
1 65084U 25167G   26164.62707981  .00048072  00000+0  86613-3 0  9990
2 65084  53.1601 296.3930 0000981  61.8235 298.2873 15.49340180 48226
STARLINK-34822          
1 65086U 25167J   26164.63018023  .00026328  00000+0  89771-3 0  9993
2 65086  53.1609 301.3915 0002403 156.5546 203.5565 15.30205138 48167
STARLINK-34686          
1 65087U 25167K   26164.62701669  .00028374  00000+0  96606-3 0  9996
2 65087  53.1604 301.3731 0001275 121.7279 238.3846 15.30214031 48162
STARLINK-34594          
1 65088U 25167L   26164.62384450  .00028233  00000+0  96152-3 0  9992
2 65088  53.1596 301.3536 0002958 170.9482 189.1573 15.30205407 48164
STARLINK-34665          
1 65089U 25167M   26164.62068238  .00029102  00000+0  99057-3 0  9999
2 65089  53.1584 301.3297 0001139 127.5863 232.5241 15.30209193 48168
STARLINK-34673          
1 65090U 25167N   26164.61751462  .00028562  00000+0  97270-3 0  9992
2 65090  53.1590 301.3106 0001294 267.4065  92.6788 15.30202380 48168
STARLINK-34648          
1 65091U 25167P   26164.58335648  .00014950  00000+0  27653-3 0  9997
2 65091  53.1598 297.2176 0001201  69.1613  95.6584 15.49289630  5906
STARLINK-34640          
1 65092U 25167Q   26164.61329884  .00029376  00000+0  99980-3 0  9997
2 65092  53.1593 301.2803 0001027 106.7012 253.4101 15.30208110 48160
STARLINK-34266          
1 65093U 25167R   26164.58335648  .00017946  00000+0  32975-3 0  9990
2 65093  53.1603 297.3430 0001570  67.0933  34.3132 15.49329090  5959
STARLINK-34769          
1 65094U 25167S   26164.58335648  .00017586  00000+0  32373-3 0  9993
2 65094  53.1598 297.2033 0001208  78.9743  92.4921 15.49291652  5952
STARLINK-34768          
1 65095U 25167T   26164.64537275  .00050657  00000+0  91255-3 0  9991
2 65095  53.1602 296.5042 0000998 102.5851 257.5270 15.49322255 48233
STARLINK-34759          
1 65096U 25167U   26164.64342954  .00062974  00000+0  11309-2 0  9996
2 65096  53.1601 296.4904 0000948  92.5344 267.5773 15.49317502 48237
STARLINK-34741          
1 65097U 25167V   26164.62762625  .00048713  00000+0  87749-3 0  9993
2 65097  53.1601 296.3933 0000969  47.4993 312.6098 15.49340265 48235
STARLINK-34764          
1 65098U 25167W   26164.60062109  .00032268  00000+0  96185-3 0  9994
2 65098  53.1592 299.7862 0000890  66.0387 294.0709 15.34406238 48183
STARLINK-34815          
1 65099U 25167X   26164.65944606  .00024551  00000+0  73541-3 0  9998
2 65099  53.1595 299.4418 0001050  85.8610 274.2512 15.34398661 48191
STARLINK-34814          
1 65100U 25167Y   26164.61323970  .00044366  00000+0  13157-2 0  9994
2 65100  53.1593 299.8633 0001971 160.8391 199.2686 15.34416948 48183
STARLINK-34285          
1 65101U 25167Z   26164.63426992  .00045696  00000+0  13529-2 0  9995
2 65101  53.1610 299.9949 0001329 100.4963 259.6190 15.34457382 48185
STARLINK-34857          
1 65102U 25167AA  26164.58335648  .00000532  00000+0  26897-4 0  9991
2 65102  53.1602 296.4754 0001203  69.2877 108.1053 15.34384254  5962
